XRISM                   
1 57800U 23137A   24283.45836998  .00019240  00000+0  13722-2 0  9999
2 57800  31.0048   4.2141 0008728 258.7846 101.1809 15.03404666 59802
